P/2011 JB15 (Spacewatch-Boattini),e,19.1302,153.5742,110.8613,7.376368,0.0491972,0.31466630,224.3344,06/27.0/2024,2000,g  9.0,4.0
# From MPC 87913
P/2011 N1 (ASH),e,35.7856,77.6289,330.4432,6.237756,0.0632647,0.54557224,278.9229,06/27.0/2024,2000,g 11.5,4.0
# From MPEC 2022-ED3
P/2011 P1 (McNaught),e,5.6553,4.2807,349.1964,7.458828,0.0483836,0.32700302,245.4651,06/27.0/2024,2000,g  9.0,4.0
# From MPEC 2022-HC2
P/2011 S1 (Gibbs),e,2.6891,218.8954,192.7561,8.589652,0.0391508,0.20160941,140.7980,06/27.0/2024,2000,g  8.0,4.0
# From MPC 79022
P/2011 UA134 (Spacewatch-PANSTARRS),e,10.4407,40.3990,32.4218,5.611684,0.0741420,0.63021021,342.5925,06/27.0/2024,2000,g 17.5,4.0
# From MPEC 2023-UR6
P/2011 V1 (Boattini),e,7.3840,46.4850,269.6603,3.855848,0.1301740,0.54853794,273.3678,06/27.0/2024,2000,g 15.5,4.0
# From MPC 82718
P/2011 W1 (PANSTARRS),e,3.7169,161.8254,282.9047,4.671800,0.0976063,0.28857277,84.8289,06/27.0/2024,2000,g 11.5,4.0
# From MPEC 2018-D88
P/2011 WG113,e,9.8451,86.3043,67.7723,3.156654,0.1757372,0.58144636,45.9739,06/27.0/2024,2000,g  9.0,4.0
# From MPC 79342
P/2011 Y2 (Boattini),e,6.3879,309.3284,132.0197,6.232706,0.0633416,0.71110502,284.4877,06/27.0/2024,2000,g 15.0,4.0
# From unp
P/2012 A3 (SOHO),e,11.0196,174.5652,219.8100,2.584208,0.2372537,0.77028113,358.3986,06/27.0/2024,2000,g 17.0,4.0
# From MPEC 2022-K19
P/2012 B1 (PANSTARRS),e,7.6081,36.2148,162.0683,6.536869,0.0589725,0.40970088,237.1164,06/27.0/2024,2000,g  9.0,4.0
# From MPC 78590
P/2012 C3 (PANSTARRS),e,9.0920,135.3677,344.9542,9.748681,0.0323806,0.63011148,359.9758,10/06.0/2011,2000,g 13.0,4.0
# From MPC 84931
P/2012 F2 (PANSTARRS),e,14.6985,226.9579,33.2222,6.343400,0.0616909,0.54018919,253.4183,06/27.0/2024,2000,g 12.0,4.0
# From MPEC 2022-ED3
P/2012 G1 (PANSTARRS),e,12.1682,283.2500,266.0541,4.163910,0.1159984,0.32910866,158.5603,06/27.0/2024,2000,g 15.0,4.0
# From MPC 80898
P/2012 K3 (Gibbs),e,13.1836,125.8137,172.1921,3.630911,0.1424559,0.42177523,253.2992,06/27.0/2024,2000,g 15.0,4.0
# From MPC 88326
P/2012 NJ (La Sagra),e,84.4203,315.6561,338.4038,8.467725,0.0399994,0.84643080,175.8127,06/27.0/2024,2000,g 14.5,4.0
# From MPC 81470
P/2012 O1 (McNaught),e,7.4278,91.9449,238.3004,3.542611,0.1478151,0.59370565,287.2637,06/27.0/2024,2000,g 17.5,4.0
# From MPC 80899
P/2012 O2 (McNaught),e,24.4587,120.6714,183.4469,3.628371,0.1426056,0.53130674,268.2265,06/27.0/2024,2000,g 17.0,4.0
# From MPC 82320
P/2012 T2 (PANSTARRS),e,12.5706,73.8824,311.0084,5.721162,0.0720241,0.16243934,292.5629,06/27.0/2024,2000,g 10.0,4.0
# From MPC 80900
P/2012 T3 (PANSTARRS),e,9.5554,114.3434,195.5115,6.154460,0.0645534,0.61584248,286.4854,06/27.0/2024,2000,g 15.0,4.0
# From MPC 82720
P/2012 U2 (PANSTARRS),e,10.7614,185.3150,228.3583,7.127076,0.0518009,0.50062767,219.2991,06/27.0/2024,2000,g 12.5,4.0
# From MPC 84024
P/2012 US27 (Siding Spring),e,39.3665,49.2289,0.8494,5.163549,0.0840005,0.64851161,350.2416,06/27.0/2024,2000,g 13.5,4.0
# From MPC 82721
P/2013 AL76 (Catalina),e,144.8931,146.0496,27.0724,6.501257,0.0594577,0.68575764,251.4080,06/27.0/2024,2000,g 16.0,4.0
# From MPEC 2013-Y32
P/2013 CU129 (PANSTARRS),e,12.1129,46.1455,212.1955,2.888157,0.2008043,0.72163610,82.2964,06/27.0/2024,2000,g  9.0,4.0
# From MPEC 2022-K19
P/2013 EW90,e,31.7990,160.2669,345.8872,4.109418,0.1183133,0.19515508,145.4509,06/27.0/2024,2000,g 14.3,4.0
# From MPC 91612
P/2013 G1 (Kowalski),e,5.4568,221.3092,51.4630,6.903885,0.0543330,0.51003327,209.8097,06/27.0/2024,2000,g 11.0,4.0
# From MPC 84025
P/2013 G4 (PANSTARRS),e,5.9184,339.5907,214.5630,4.434288,0.1055524,0.40908193,78.0069,06/27.0/2024,2000,g 15.0,4.0
# From MPC 91613
P/2013 J2 (McNaught),e,15.5042,289.3187,37.8787,6.226063,0.0634430,0.65637006,250.8662,06/27.0/2024,2000,g 13.0,4.0
# From MPC 86229
P/2013 N3 (PANSTARRS),e,2.1694,17.5567,323.9341,7.401501,0.0489468,0.59178282,185.1929,06/27.0/2024,2000,g 13.0,4.0
# From MPC 85834
P/2013 N5 (PANSTARRS),e,23.4379,187.1703,176.9593,6.797649,0.0556117,0.73202235,222.6961,06/27.0/2024,2000,g 17.0,4.0
# From MPC 85834
P/2013 P1 (PANSTARRS),e,18.7010,160.6587,138.2084,8.589950,0.0391488,0.60305510,162.2232,06/27.0/2024,2000,g 12.0,4.0
# From MPEC 2022-V95
P/2013 R3 (Catalina-PANSTARRS),e,0.8649,342.0358,11.3181,3.031832,0.1867009,0.27577236,18.3682,06/27.0/2024,2000,g 14.0,4.0
# From unp
P/2013 R3-A (Catalina-PANSTARRS),e,0.8640,341.9907,11.3970,3.031597,0.1867226,0.27570526,18.4400,06/27.0/2024,2000,g  9.0,4.0
# From MPEC 2015-M77
P/2013 R3-B (Catalina-PANSTARRS),e,0.8652,342.0466,11.3318,3.031808,0.1867031,0.27574869,18.3640,06/27.0/2024,2000,g  9.0,4.0
# From MPC 85835
P/2013 T1 (PANSTARRS),e,24.2830,10.1015,346.1772,5.854872,0.0695710,0.62391510,276.3368,06/27.0/2024,2000,g 16.5,4.0
# From MPC 86643
P/2013 T2 (Schwartz),e,9.4502,0.8183,345.5797,3.492957,0.1509782,0.50046909,252.1640,06/27.0/2024,2000,g 16.0,4.0
# From MPC 91613
P/2013 W1 (PANSTARRS),e,4.6988,117.8308,1.2249,3.485893,0.1514374,0.59354370,209.7667,06/27.0/2024,2000,g 17.5,4.0
# From MPC101095
P/2013 YG46 (Spacewatch),e,7.8411,48.8173,242.7374,3.282114,0.1657577,0.45751361,88.8752,06/27.0/2024,2000,g 10.0,4.0
# From MPC 89728
P/2014 A2 (Hill),e,24.5604,106.6526,356.1602,5.924316,0.0683513,0.64645545,267.2977,06/27.0/2024,2000,g 15.0,4.0
# From MPEC 2024-F34
P/2014 C1 (TOTAS),e,3.2618,40.1395,188.5602,3.998997,0.1232473,0.35003271,179.8858,06/27.0/2024,2000,g 15.5,4.0
# From MPEC 2022-WD2
C/2014 F3 (Sheppard-Trujillo),e,6.5212,326.0022,5.0781,14.42545,0.0179891,0.60313266,20.2443,06/27.0/2024,2000,g  6.0,4.0
# From MPC 98560
P/2014 L2 (NEOWISE),e,5.1946,149.3533,182.7134,6.308953,0.0621968,0.64683544,225.7525,06/27.0/2024,2000,g 12.0,4.0
# From MPC 90769
P/2014 L3 (Hill),e,6.2593,115.5256,178.6856,8.182758,0.0421070,0.77150474,153.8806,06/27.0/2024,2000,g 16.0,4.0
# From MPC 91614
P/2014 M4 (PANSTARRS),e,3.3462,263.2024,148.0929,5.864516,0.0693994,0.59612664,240.2680,06/27.0/2024,2000,g 15.0,4.0
# From MPEC 2024-M41
P/2014 MG4 (Spacewatch-PANSTARRS),e,9.3647,311.6954,298.9408,5.013930,0.0877883,0.25872132,353.7219,06/27.0/2024,2000,g  9.5,4.0
# From MPC 98560
P/2014 O3 (PANSTARRS),e,7.7898,87.6272,204.7614,7.584566,0.0471854,0.38288259,176.0504,06/27.0/2024,2000,g 10.5,4.0
# From MPEC 2024-A43
C/2014 OG392 (PANSTARRS),e,9.0326,145.8219,254.9568,12.25954,0.0229611,0.18619198,21.0000,06/27.0/2024,2000,g  6.0,4.0
# From MPC 91616
P/2014 U4 (PANSTARRS),e,6.4254,11.9268,347.8541,3.511041,0.1498133,0.46421145,184.2149,06/27.0/2024,2000,g 18.0,4.0
# From MPEC 2024-LE0
C/2014 UN271 (Bernardinelli-Bernstein),h,01/17.5982/2031,95.4381,189.9252,326.1121,1.003463,10.957343,2000,2.5,3.2
# From MPC 95211
P/2014 V1 (PANSTARRS),e,22.5099,166.2031,177.6647,5.479926,0.0768320,0.53380194,264.0999,06/27.0/2024,2000,g 14.0,4.0
# From MPC105542
P/2014 W4 (PANSTARRS),e,15.2858,33.3351,67.6544,6.582114,0.0583655,0.35467110,180.7204,06/27.0/2024,2000,g 11.0,4.0
# From MPC 94281
P/2014 X1 (Elenin),e,26.0540,61.5580,33.9062,6.200594,0.0638343,0.71059897,220.9142,06/27.0/2024,2000,g 15.0,4.0
# From MPC 92275
P/2015 A3 (PANSTARRS),e,172.5494,277.4506,249.6198,7.817786,0.0450898,0.85041040,153.9607,06/27.0/2024,2000,g 20.0,4.0
# From MPC 99270
P/2015 B1 (PANSTARRS),e,18.0748,352.8711,188.7336,9.479610,0.0337690,0.36642411,108.6342,06/27.0/2024,2000,g  8.5,4.0
# From MPC109141
P/2015 B4 (Lemmon-PANSTARRS),e,1.7669,266.1224,227.1107,8.507603,0.0397185,0.56190183,136.2075,06/27.0/2024,2000,g 11.0,4.0
# From MPC101096
P/2015 C1 (TOTAS-Gibbs),e,13.9486,348.7873,177.9956,6.561670,0.0586385,0.56404382,196.4640,06/27.0/2024,2000,g 12.5,4.0
# From MPC109141
P/2015 D5 (Kowalski),e,20.5520,74.0885,39.5957,8.945797,0.0368363,0.49135271,137.5667,06/27.0/2024,2000,g  9.0,4.0
# From MPC 96866
P/2015 D6 (Lemmon-PANSTARRS),e,20.2315,45.6924,124.9699,7.127220,0.0517993,0.36250487,170.4072,06/27.0/2024,2000,g 10.5,4.0
# From MPC 95213
P/2015 K5 (PANSTARRS),e,39.9329,134.2821,106.1814,6.727851,0.0564793,0.55142247,187.5132,06/27.0/2024,2000,g 13.5,4.0
# From MPC107684
P/2015 M2 (PANSTARRS),e,3.9679,86.7004,225.9235,7.252336,0.0504646,0.17823665,162.2712,06/27.0/2024,2000,g  8.5,4.0
# From MPC 99819
P/2015 P4 (PANSTARRS),e,8.7208,104.6989,280.7091,6.047134,0.0662796,0.58555187,203.7953,06/27.0/2024,2000,g 14.0,4.0
# From MPEC 2022-K19
P/2015 PD229 (Cameron-ISON),e,2.0220,342.7391,352.7226,7.202374,0.0509907,0.32601965,165.1901,06/27.0/2024,2000,g 11.5,2.0
# From MPC 96867
P/2015 Q2 (Pimentel),e,146.5594,228.5600,244.6787,7.351134,0.0494507,0.75154672,158.8183,06/27.0/2024,2000,g 15.5,4.0
# From MPC 98562
P/2015 R1 (PANSTARRS),e,22.6882,48.3758,300.5500,5.882579,0.0690800,0.63349911,226.8414,06/27.0/2024,2000,g 14.0,4.0
# From MPC 95734
P/2015 R2 (PANSTARRS),e,15.4811,168.6068,149.8704,4.482382,0.1038582,0.45230820,342.1660,06/27.0/2024,2000,g 14.5,4.0
# From MPC102953
P/2015 TO19 (Lemmon-PANSTARRS),e,6.5048,321.6604,89.2813,4.548183,0.1016125,0.35969817,307.7418,06/27.0/2024,2000,g 14.0,4.0
# From MPC110080
P/2015 TP200 (LINEAR),e,8.7811,6.9601,82.5023,7.262035,0.0503636,0.53720777,140.7465,06/27.0/2024,2000,g 11.0,4.0
# From MPC101098
P/2015 W2 (Catalina),e,11.6167,294.1154,117.6370,7.291640,0.0500572,0.63556980,159.4466,06/27.0/2024,2000,g 13.0,4.0
# From MPEC 2023-J29
P/2015 X3 (PANSTARRS),e,24.4222,77.2558,306.9342,5.000115,0.0881524,0.44007392,285.2168,06/27.0/2024,2000,g 15.0,4.0
# From MPC115881
P/2015 X6 (PANSTARRS),e,4.5654,106.9383,329.8362,2.751277,0.2159745,0.17362775,291.1397,06/27.0/2024,2000,g 16.0,4.0
# From MPC100282
P/2016 A2 (Christensen),e,26.4051,291.5946,141.3442,4.753593,0.0950979,0.27137679,314.0723,06/27.0/2024,2000,g 11.5,4.0
# From MPEC 2022-OB6
P/2016 A3 (PANSTARRS),e,8.5158,187.1693,340.8104,7.871216,0.0446315,0.38651719,116.9205,06/27.0/2024,2000,g 10.0,4.0
# From MPC102098
P/2016 A7 (PANSTARRS),e,16.5917,221.4360,352.4593,5.038440,0.0871485,0.56693091,266.7400,06/27.0/2024,2000,g 16.0,4.0
# From MPEC 2021-P47
P/2016 G1 (PANSTARRS),e,10.9706,204.0169,111.1026,2.583976,0.2372856,0.21019177,283.3145,06/27.0/2024,2000,g 14.0,4.0
